NORAD_CAT_ID,OBJECT_NAME,OBJECT_TYPE,EPOCH,MEAN_MOTION,ECCENTRICITY,INCLINATION,RA_OF_ASC_NODE,ARG_OF_PERICENTER,MEAN_ANOMALY,BSTAR,MEAN_MOTION_DOT,MEAN_MOTION_DDOT,TLE_LINE0,TLE_LINE1,TLE_LINE2,SEMIMAJOR_AXIS,PERIOD,APOGEE,PERIGEE,DECAYED
52479.0,STARLINK-3878,PAYLOAD,2023-11-11 13:58:29,15.0884081,0.0001228,53.2157,260.9109,86.8813,273.232,0.00016262,2.301e-05,0.0,0 STARLINK-3878,1 52479U 22049AE  23315.58229152  .00002301  00000-0  16262-3 0  9998,2 52479  53.2157 260.9109 0001228  86.8813 273.2320 15.08840810 85441,6917.878,95.438,540.592,538.893,0.0
52479.0,STARLINK-3878,PAYLOAD,2023-11-12 02:41:34,15.0884491,0.0001268,53.2163,258.529,104.7527,255.3605,0.00010201,1.336e-05,0.0,0 STARLINK-3878,1 52479U 22049AE  23316.11221015  .00001336  00000-0  10201-3 0  9992,2 52479  53.2163 258.5290 0001268 104.7527 255.3605 15.08844910 84449,6917.865,95.437,540.608,538.853,0.0
52479.0,STARLINK-3878,PAYLOAD,2023-11-12 05:52:21,15.08850055,0.0001388,53.2174,257.9339,103.5829,256.5318,0.00018342,2.633e-05,0.0,0 STARLINK-3878,1 52479U 22049AE  23316.24468808  .00002633  00000-0  18342-3 0  9994,2 52479  53.2174 257.9339 0001388 103.5829 256.5318 15.08850055 85546,6917.85,95.437,540.675,538.754,0.0
52479.0,STARLINK-3878,PAYLOAD,2023-11-13 05:43:08,15.08845616,0.0001612,53.2177,253.4712,104.3842,255.7329,0.00010135,1.326e-05,0.0,0 STARLINK-3878,1 52479U 22049AE  23317.23829068  .00001326  00000-0  10135-3 0  9993,2 52479  53.2177 253.4712 0001612 104.3842 255.7329 15.08845616 84616,6917.863,95.437,540.843,538.613,0.0
52479.0,STARLINK-3878,PAYLOAD,2023-11-14 02:23:09,15.08844668,0.0001502,53.2172,249.607,96.8208,263.2955,6.3126e-05,7.17e-06,0.0,0 STARLINK-3878,1 52479U 22049AE  23318.09941081  .00000717  00000-0  63126-4 0  9990,2 52479  53.2172 249.6070 0001502  96.8208 263.2955 15.08844668 85823,6917.866,95.437,540.77,538.692,0.0
52479.0,STARLINK-3878,PAYLOAD,2023-11-14 19:52:24,15.08834628,0.0001477,53.2174,246.3415,99.8781,260.2378,-4.6858e-05,-1.034e-05,0.0,0 STARLINK-3878,1 52479U 22049AE  23318.82805733 -.00001034  00000-0 -46858-4 0  9992,2 52479  53.2174 246.3415 0001477  99.8781 260.2378 15.08834628 84855,6917.897,95.438,540.784,538.74,0.0
52479.0,STARLINK-3878,PAYLOAD,2023-11-15 19:43:11,15.0884812,0.0001536,53.2191,241.8823,93.3347,266.7821,-6.6775e-05,-1.351e-05,0.0,0 STARLINK-3878,1 52479U 22049AE  23319.82165865 -.00001351  00000-0 -66775-4 0  9990,2 52479  53.2191 241.8823 0001536  93.3347 266.7821 15.08848120 86083,6917.856,95.437,540.783,538.658,0.0
52479.0,STARLINK-3878,PAYLOAD,2023-11-16 00:29:20,15.08846953,0.0001499,53.2177,240.9888,98.3268,261.7894,7.9812e-05,9.83e-06,0.0,0 STARLINK-3878,1 52479U 22049AE  23320.02037394  .00000983  00000-0  79812-4 0  9993,2 52479  53.2177 240.9888 0001499  98.3268 261.7894 15.08846953 85034,6917.859,95.437,540.761,538.687,0.0
52479.0,STARLINK-3878,PAYLOAD,2023-11-16 05:15:30,15.08817505,0.000163,53.2169,240.095,98.69,261.4277,0.00060253,9.308e-05,0.0,0 STARLINK-3878,1 52479U 22049AE  23320.21910153  .00009308  00000-0  60253-3 0  9995,2 52479  53.2169 240.0950 0001630  98.6900 261.4277 15.08817505 85065,6917.949,95.439,540.942,538.687,0.0
52479.0,STARLINK-3878,PAYLOAD,2023-11-17 05:06:17,15.08837536,0.0001582,53.2184,235.634,90.8797,269.2377,9.9693e-05,1.299e-05,0.0,0 STARLINK-3878,1 52479U 22049AE  23321.21270152  .00001299  00000-0  99693-4 0  9996,2 52479  53.2184 235.6340 0001582  90.8797 269.2377 15.08837536 86298,6917.888,95.438,540.847,538.659,0.0
52479.0,STARLINK-3878,PAYLOAD,2023-11-17 22:35:32,15.08840272,0.0001646,53.2184,232.3631,85.0792,275.0388,2.1635e-05,5.6e-07,0.0,0 STARLINK-3878,1 52479U 22049AE  23321.94134288  .00000056  00000-0  21635-4 0  9996,2 52479  53.2184 232.3631 0001646  85.0792 275.0388 15.08840272 86408,6917.88,95.438,540.883,538.606,0.0
52479.0,STARLINK-3878,PAYLOAD,2023-11-18 03:21:41,15.08843097,0.0001765,53.2187,231.4714,90.3593,269.7602,5.0402e-05,5.14e-06,0.0,0 STARLINK-3878,1 52479U 22049AE  23322.14006019  .00000514  00000-0  50402-4 0  9992,2 52479  53.2187 231.4714 0001765  90.3593 269.7602 15.08843097 85353,6917.871,95.437,540.957,538.515,0.0
52479.0,STARLINK-3878,PAYLOAD,2023-11-18 11:18:37,15.08833424,0.0001779,53.2185,229.9851,89.7639,270.3557,0.0001231,1.671e-05,0.0,0 STARLINK-3878,1 52479U 22049AE  23322.47126611  .00001671  00000-0  12310-3 0  9999,2 52479  53.2185 229.9851 0001779  89.7639 270.3557 15.08833424 85409,6917.9,95.438,540.996,538.535,0.0
52479.0,STARLINK-3878,PAYLOAD,2023-11-19 11:09:23,15.08845723,0.0001526,53.2173,225.5265,84.0533,276.0633,8.7544e-05,1.106e-05,0.0,0 STARLINK-3878,1 52479U 22049AE  23323.46485789  .00001106  00000-0  87544-4 0  9998,2 52479  53.2173 225.5265 0001526  84.0533 276.0633 15.08845723 85557,6917.863,95.437,540.784,538.672,0.0
52479.0,STARLINK-3878,PAYLOAD,2023-11-19 22:17:05,15.08846322,0.0001534,53.2172,223.445,84.4161,275.7006,0.0001074,1.422e-05,0.0,0 STARLINK-3878,1 52479U 22049AE  23323.92853561  .00001422  00000-0  10740-3 0  9990,2 52479  53.2172 223.4450 0001534  84.4161 275.7006 15.08846322 86703,6917.861,95.437,540.787,538.665,0.0
52479.0,STARLINK-3878,PAYLOAD,2023-11-20 03:03:14,15.08856462,0.0001562,53.2185,222.5514,88.0749,272.0422,0.000164,2.324e-05,0.0,0 STARLINK-3878,1 52479U 22049AE  23324.12724640  .00002324  00000-0  16400-3 0  9999,2 52479  53.2185 222.5514 0001562  88.0749 272.0422 15.08856462 85652,6917.83,95.437,540.776,538.615,0.0
52479.0,STARLINK-3878,PAYLOAD,2023-11-20 11:00:10,15.08838756,0.0001603,53.2193,221.0639,91.8944,268.2231,5.6e-05,6.03e-06,0.0,0 STARLINK-3878,1 52479U 22049AE  23324.45846027  .00000603  00000-0  56000-4 0  9998,2 52479  53.2193 221.0639 0001603  91.8944 268.2231 15.08838756 85705,6917.884,95.438,540.858,538.64,0.0
52479.0,STARLINK-3878,PAYLOAD,2023-11-20 22:07:52,15.08839322,0.000156,53.2185,218.9845,84.5867,275.5303,4.8653e-05,4.86e-06,0.0,0 STARLINK-3878,1 52479U 22049AE  23324.92214042  .00000486  00000-0  48653-4 0  9990,2 52479  53.2185 218.9845 0001560  84.5867 275.5303 15.08839322 86853,6917.882,95.438,540.827,538.668,0.0
52479.0,STARLINK-3878,PAYLOAD,2023-11-21 02:54:02,15.08843512,0.0001687,53.2183,218.0897,98.2062,261.9122,6.7131e-05,7.81e-06,0.0,0 STARLINK-3878,1 52479U 22049AE  23325.12085662  .00000781  00000-0  67131-4 0  9997,2 52479  53.2183 218.0897 0001687  98.2062 261.9122 15.08843512 86885,6917.87,95.437,540.902,538.568,0.0
52479.0,STARLINK-3878,PAYLOAD,2023-11-21 20:23:16,15.0884424,0.0001469,53.2188,214.8206,88.0245,272.0915,-8.4723e-07,-3.01e-06,0.0,0 STARLINK-3878,1 52479U 22049AE  23325.84949852 -.00000301  00000-0 -84723-6 0  9994,2 52479  53.2188 214.8206 0001469  88.0245 272.0915 15.08844240 86990,6917.867,95.437,540.749,538.716,0.0
52479.0,STARLINK-3878,PAYLOAD,2023-11-21 21:58:38,15.08856938,0.0002148,53.2187,214.5234,125.2186,234.9007,0.00012901,1.766e-05,0.0,0 STARLINK-3878,1 52479U 22049AE  23325.91572581  .00001766  00000-0  12901-3 0  9993,2 52479  53.2187 214.5234 0002148 125.2186 234.9007 15.08856938 85928,6917.829,95.436,541.18,538.208,0.0
52479.0,STARLINK-3878,PAYLOAD,2023-11-22 20:14:03,15.08846421,0.0001679,53.2165,210.3567,109.4626,250.6548,0.00012639,1.724e-05,0.0,0 STARLINK-3878,1 52479U 22049AE  23326.84309094  .00001724  00000-0  12639-3 0  9995,2 52479  53.2165 210.3567 0001679 109.4626 250.6548 15.08846421 86065,6917.861,95.437,540.887,538.564,0.0
52479.0,STARLINK-3878,PAYLOAD,2023-11-22 23:24:49,15.08851361,0.0001678,53.2162,209.7625,104.8324,255.2854,0.00016357,2.317e-05,0.0,0 STARLINK-3878,1 52479U 22049AE  23326.97556955  .00002317  00000-0  16357-3 0  9999,2 52479  53.2162 209.7625 0001678 104.8324 255.2854 15.08851361 87164,6917.846,95.437,540.871,538.55,0.0
52479.0,STARLINK-3878,PAYLOAD,2023-11-23 20:04:50,15.08830874,0.0001437,53.2157,205.897,100.0591,260.0563,-0.0002255,-3.874e-05,0.0,0 STARLINK-3878,1 52479U 22049AE  23327.83670091 -.00003874  00000-0 -22550-3 0  9996,2 52479  53.2157 205.8970 0001437 100.0591 260.0563 15.08830874 86217,6917.908,95.438,540.767,538.779,0.0
52479.0,STARLINK-3878,PAYLOAD,2023-11-23 21:40:14,15.0882953,0.0001377,53.2156,205.5998,97.4699,262.6449,-0.00023946,-4.096e-05,0.0,0 STARLINK-3878,1 52479U 22049AE  23327.90294195 -.00004096  00000-0 -23946-3 0  9998,2 52479  53.2156 205.5998 0001377  97.4699 262.6449 15.08829530 87303,6917.912,95.438,540.73,538.825,0.0
52479.0,STARLINK-3878,PAYLOAD,2023-11-24 02:26:23,15.08825338,0.0001497,53.2158,204.7086,100.5725,259.5436,-0.00023672,-4.052e-05,0.0,0 STARLINK-3878,1 52479U 22049AE  23328.10166593 -.00004052  00000-0 -23672-3 0  9999,2 52479  53.2158 204.7086 0001497 100.5725 259.5436 15.08825338 87339,6917.925,95.438,540.826,538.755,0.0
52479.0,STARLINK-3878,PAYLOAD,2023-11-24 21:31:01,15.08840076,0.0001404,53.2155,201.1435,85.0326,275.0826,4.3699e-05,4.08e-06,0.0,0 STARLINK-3878,1 52479U 22049AE  23328.89654542  .00000408  00000-0  43699-4 0  9992,2 52479  53.2155 201.1435 0001404  85.0326 275.0826 15.08840076 87452,6917.88,95.438,540.716,538.774,0.0
52479.0,STARLINK-3878,PAYLOAD,2023-11-25 00:41:47,15.08843286,0.0001438,53.2157,200.5461,84.7498,275.3659,0.00031578,4.742e-05,0.0,0 STARLINK-3878,1 52479U 22049AE  23329.02902571  .00004742  00000-0  31578-3 0  9993,2 52479  53.2157 200.5461 0001438  84.7498 275.3659 15.08843286 86394,6917.87,95.437,540.73,538.741,0.0
52479.0,STARLINK-3878,PAYLOAD,2023-11-25 15:00:16,15.0884436,0.0001681,53.2155,197.8711,73.9802,286.1375,0.0004624,7.08e-05,0.0,0 STARLINK-3878,1 52479U 22049AE  23329.62518899  .00007080  00000-0  46240-3 0  9995,2 52479  53.2155 197.8711 0001681  73.9802 286.1375 15.08844360 87566,6917.867,95.437,540.895,538.569,0.0
52479.0,STARLINK-3878,PAYLOAD,2023-11-25 21:21:48,15.08862144,0.0001617,53.2149,196.6819,69.8327,290.2839,0.00074782,0.00011641,0.0,0 STARLINK-3878,1 52479U 22049AE  23329.89014347  .00011641  00000-0  74782-3 0  9993,2 52479  53.2149 196.6819 0001617  69.8327 290.2839 15.08862144 87606,6917.813,95.436,540.796,538.559,0.0
